MOLNIYA 2-9             
1 07276U 74026A   19050.99617786 -.00000025  00000-0 -92037-4 0  9993
2 07276  63.3816  63.8210 6848664 289.4430  12.0420  2.45097778219610
MOLNIYA 2-10            
1 07376U 74056A   19050.77382474  .00000160  00000-0  00000-0 0  9999
2 07376  63.4040 220.6705 6974566 294.6061  10.0323  2.01055436325954
MOLNIYA 1-S             
1 07392U 74060A   19051.72601150 -.00000065  00000-0  00000-0 0  9998
2 07392   7.9578 299.9071 0006305 172.3306   8.1978  1.00343857107363
MOLNIYA 1-29            
1 07780U 75036A   19051.97177182  .00000441  00000-0  43991-3 0  9999
2 07780  62.2940  30.4158 7489165 283.2472   9.8448  2.00641414321298
MOLNIYA 2-14            
1 08195U 75081A   19050.78361803 -.00000908  00000-0  48862-3 0  9994
2 08195  62.5052 355.3283 7480122 288.2403   8.9755  2.02061512318381
MOLNIYA 1-32            
1 08601U 76006A   19051.14908906 -.00001202  00000-0  00000-0 0  9993
2 08601  62.2234 123.8974 7261234 273.7120  13.7042  1.99980014 28443
MOLNIYA 2-17            
1 09829U 77010A   19050.31366780  .00001603  00000-0  43598-3 0  9994
2 09829  61.2085 130.4909 7469257 270.1605  13.2017  2.00483170305084
MOLNIYA 1-36            
1 09880U 77021A   19051.09402986 -.00001461  00000-0  61505-4 0  9990
2 09880  61.7881 102.4867 7405937 276.9504  11.7735  2.00542774205062
MOLNIYA 3-7             
1 09941U 77032A   19051.17834059  .00007342  18377-6  56202-3 0  9991
2 09941  61.3867  99.9244 7523605 275.2794  11.3993  2.00996431306400
MOLNIYA 3-8             
1 10455U 77105A   19051.31372853 -.00001021  00000-0  21040-2 0  9997
2 10455  62.1624 177.6148 7155232 272.9968  14.6966  2.00646224302801
MOLNIYA 1-40            
1 10925U 78055A   19051.45525068 -.00000233  00000-0 -16191-1 0  9992
2 10925  62.4392 207.3723 7091900 276.9633  13.8840  2.00708408298351
MOLNIYA 3-10            
1 11057U 78095A   19051.66474424  .00001913  00000-0  27817-3 0  9998
2 11057  62.5076 148.7065 5979596 287.3199  18.2951  4.08351728334073
MOLNIYA 3-13            
1 11896U 80063A   19051.71988369 -.00000139  00000-0 -88586-3 0  9992
2 11896  62.5977 299.0056 7388967 272.5210  13.1801  2.00682829282789
MOLNIYA 1-49            
1 12156U 81009A   19051.30791320 -.00001163  00000-0 -24651-2 0  9997
2 12156  63.1589 347.6917 7248870 247.9350  25.0364  2.05707722196538
MOLNIYA 1-52            
1 13012U 81123A   19051.24212967  .00001210  00000-0  00000+0 0  9994
2 13012  64.0347  90.8691 7047399 249.5152  26.3571  2.00661152272304
MOLNIYA 1-53            
1 13070U 82015A   19052.01072104  .00000921  00000-0  42970-3 0  9996
2 13070  62.4969  43.3445 7497381 269.3363  13.2967  2.00644560270928
MOLNIYA 3-20            
1 13875U 83015A   19050.82620130  .00000718  00000-0  10902+0 0  9995
2 13875  63.7043 158.0170 6869903 257.4631 347.8387  2.00803194199354
MOLNIYA 1-56            
1 13890U 83019A   19051.32285991  .00000900  00000-0  00000+0 0  9995
2 13890  63.2927 182.7101 6913783 261.5821 186.3065  1.99936320262364
MOLNIYA 1-62            
1 15214U 84089A   19051.34780936 -.00000469  00000-0 -12412-1 0  9990
2 15214  62.7613 195.9874 7128905 263.8292  18.1974  1.97936721220231
MOLNIYA 1-63            
1 15429U 84124A   19051.52762275  .00001280  00000-0  00000+0 0  9992
2 15429  63.9134 284.3427 6785404 269.7025 180.7178  2.00646346250475
MOLNIYA 3-24            
1 15738U 85040A   19051.65559749  .00000060  00000-0 -16555-2 0  9998
2 15738  64.0837 281.1255 6490661 256.9519 197.2193  2.55627470272862
MOLNIYA 3-27            
1 16393U 85117A   19051.42004296  .00000185  00000-0  39832-1 0  9997
2 16393  64.6890 212.9937 6454014 264.4666  21.7164  2.12398762248407
MOLNIYA 1-69            
1 17078U 86089A   19051.61883448 -.00001269  00000-0 -53689-1 0  9994
2 17078  64.3814 308.0498 6901620 269.5837  14.8657  2.00878648236462
MOLNIYA 3-31            
1 17328U 87008A   19051.59307934 -.00000080  00000-0  00000+0 0  9998
2 17328  63.9460 254.3035 6778073 265.3024  20.7358  2.00654114231568
MOLNIYA 1-71            
1 18946U 88017A   19051.32591094 -.00000089  00000-0 -55985-1 0  9993
2 18946  63.6450 258.7968 6913190 264.8530 177.7167  2.00568222226751
MOLNIYA 1-75            
1 19807U 89014A   19051.32677314  .00000200  00000-0 -15827-1 0  9993
2 19807  64.1180  70.0758 6970705 274.1391  15.7297  2.00553597219756
MOLNIYA 1-80            
1 21118U 91012A   19051.42800372  .00001056  00000-0  27300-1 0  9993
2 21118  63.5947 112.1998 6807921 289.2698  12.3750  2.05236601206109
MOLNIYA 3-40            
1 21196U 91022A   19051.08909275 -.00001002  00000-0  00000-0 0  9993
2 21196  63.8120 104.5755 6827227 286.7326  12.9261  2.03013868205061
MOLNIYA 1-81            
1 21426U 91043A   19051.26154451  .00000098  00000-0  00000-0 0  9993
2 21426  63.7679 130.6523 6819864 275.4589  16.4493  2.00613955202829
MOLNIYA 3-41            
1 21706U 91065A   19051.13585937  .00000424  00000-0 -19319-1 0  9999
2 21706  64.3736 296.4979 6944988 269.3198 247.7804  2.04354471202117
MOLNIYA 3-42            
1 22178U 92067A   19051.73114430 -.00000057  00000-0  00000-0 0  9996
2 22178  64.5189   3.0251 6884625 282.9551  13.7200  2.20434225 53440
MOLNIYA 1-86            
1 22671U 93035A   19052.14557314 -.00000023  00000-0  19998-4 0  9991
2 22671  63.0929 217.7799 4859645 349.8050   3.0520  5.62580172284045
MOLNIYA 1-87            
1 22949U 93079A   19050.46467378 -.00001263  00000-0 -13618-1 0  9998
2 22949  63.2831 228.7430 7062817 290.6442  10.4790  2.02874510 50314
MOLNIYA 1-88            
1 23420U 94081A   19051.31999339  .00000109  00000-0  25268-2 0  9990
2 23420  63.6325 123.6795 6049714 298.5868  14.0880  3.34494340206360
MOLNIYA 3-47            
1 23642U 95042A   19051.13768682  .00001370  00000-0 -75330-2 0  9996
2 23642  63.1204 210.8013 6999078 289.7465  11.0280  2.01942498172606
MOLNIYA 1-90            
1 24960U 97054A   19051.30468321  .00000065  00000-0  20609-4 0  9991
2 24960  62.8474 104.3777 6422423 298.1509  12.1880  3.18687507169348
MOLNIYA 1-91            
1 25485U 98054A   19051.08082697  .00046145 -29162-6  29411-3 0  9993
2 25485  62.4527   9.4149 7298954 282.5220  11.1315  2.31355453149719
MOLNIYA 3-50            
1 25847U 99036A   19051.36236631  .00000525  00000-0  30033-2 0  9992
2 25847  62.1120 162.2026 7195788 271.2175  14.9764  2.00640198143772
